{"type": "FeatureCollection", "features": [ {"type": "Feature", "properties": {"norad_id": 58662, "name": "TIANMU-1 21", "group": "weather", "lat": 26.50242571194019, "lon": 97.9009749955112, "alt_km": 472.91487313255857, "timestamp": "2025-12-14T05:42:18.099788+00:00", "meta": {"OBJECT_NAME": "TIANMU-1 21", "OBJECT_ID": "2023-208C", "EPOCH": "2025-12-13T15:28:35.096160", "MEAN_MOTION": 15.31577886, "ECCENTRICITY": 0.00058749, "INCLINATION": 97.4369, "RA_OF_ASC_NODE": 101.0407, "ARG_OF_PERICENTER": 256.2387, "MEAN_ANOMALY": 103.82, "EPHEMERIS_TYPE": 0, "CLASSIFICATION_TYPE": "U", "NORAD_CAT_ID": 58662, "ELEMENT_SET_NO": 999, "REV_AT_EPOCH": 10913, "BSTAR": 0.00043180944, "MEAN_MOTION_DOT": 0.00013104, "MEAN_MOTION_DDOT": 0}, "tle": {"line1": "1 58662U 23208C   25347.64485065  .00013104  00000+0  43181-3 0  9999", "line2": "2 58662  97.4369 101.0407 0005874 256.2387 103.8200 15.31577886109136"}}, "geometry": {"type": "Point", "coordinates": [97.9009749955112, 26.50242571194019]}}, {"type": "Feature", "properties": {"norad_id": 58663, "name": "TIANMU-1 22", "group": "weather", "lat": -70.7877352915934, "lon": 121.34688490513062, "alt_km": 488.33820946176, "timestamp": "2025-12-14T05:42:18.099801+00:00", "meta": {"OBJECT_NAME": "TIANMU-1 22", "OBJECT_ID": "2023-208D", "EPOCH": "2025-12-13T14:18:00.281376", "MEAN_MOTION": 15.27627969, "ECCENTRICITY": 0.0002681, "INCLINATION": 97.4377, "RA_OF_ASC_NODE": 98.6896, "ARG_OF_PERICENTER": 282.4547, "MEAN_ANOMALY": 77.6393, "EPHEMERIS_TYPE": 0, "CLASSIFICATION_TYPE": "U", "NORAD_CAT_ID": 58663, "ELEMENT_SET_NO": 999, "REV_AT_EPOCH": 10896, "BSTAR": 0.0004971806, "MEAN_MOTION_DOT": 0.00013365, "MEAN_MOTION_DDOT": 0}, "tle": {"line1": "1 58663U 23208D   25347.59583659  .00013365  00000+0  49718-3 0  9993", "line2": "2 58663  97.4377  98.6896 0002681 282.4547  77.6393 15.27627969108965"}}, "geometry": {"type": "Point", "coordinates": [121.34688490513062, -70.7877352915934]}}, {"type": "Feature", "properties": {"norad_id": 58700, "name": "TIANMU-1 15", "group": "weather", "lat": 41.43075566158441, "lon": 163.05827999004816, "alt_km": 489.27572237357253, "timestamp": "2025-12-14T05:42:18.099811+00:00", "meta": {"OBJECT_NAME": "TIANMU-1 15", "OBJECT_ID": "2024-004A", "EPOCH": "2025-12-11T12:56:40.540704", "MEAN_MOTION": 15.24670451, "ECCENTRICITY": 0.00052437, "INCLINATION": 97.4631, "RA_OF_ASC_NODE": 167.0136, "ARG_OF_PERICENTER": 303.7498, "MEAN_ANOMALY": 56.324, "EPHEMERIS_TYPE": 0, "CLASSIFICATION_TYPE": "U", "NORAD_CAT_ID": 58700, "ELEMENT_SET_NO": 999, "REV_AT_EPOCH": 10716, "BSTAR": 0.00086402607, "MEAN_MOTION_DOT": 0.00021326, "MEAN_MOTION_DDOT": 0}, "tle": {"line1": "1 58700U 24004A   25345.53935811  .00021326  00000+0  86403-3 0  9991", "line2": "2 58700  97.4631 167.0136 0005243 303.7498  56.3240 15.24670451107164"}}, "geometry": {"type": "Point", "coordinates": [163.05827999004816, 41.43075566158441]}}, {"type": "Feature", "properties": {"norad_id": 58701, "name": "TIANMU-1 16", "group": "weather", "lat": 57.24983156868631, "lon": 0.8381539978760533, "alt_km": 489.9364219901345, "timestamp": "2025-12-14T05:42:18.099821+00:00", "meta": {"OBJECT_NAME": "TIANMU-1 16", "OBJECT_ID": "2024-004B", "EPOCH": "2025-12-13T16:34:08.607360", "MEAN_MOTION": 15.24450479, "ECCENTRICITY": 0.00044343, "INCLINATION": 97.4569, "RA_OF_ASC_NODE": 168.5443, "ARG_OF_PERICENTER": 292.4461, "MEAN_ANOMALY": 67.6307, "EPHEMERIS_TYPE": 0, "CLASSIFICATION_TYPE": "U", "NORAD_CAT_ID": 58701, "ELEMENT_SET_NO": 999, "REV_AT_EPOCH": 10749, "BSTAR": 0.00033415638, "MEAN_MOTION_DOT": 8.135e-05, "MEAN_MOTION_DDOT": 0}, "tle": {"line1": "1 58701U 24004B   25347.69037740  .00008135  00000+0  33416-3 0  9994", "line2": "2 58701  97.4569 168.5443 0004434 292.4461  67.6307 15.24450479107498"}}, "geometry": {"type": "Point", "coordinates": [0.8381539978760533, 57.24983156868631]}}, {"type": "Feature", "properties": {"norad_id": 58702, "name": "TIANMU-1 17", "group": "weather", "lat": -26.49269945691469, "lon": -14.245133280493079, "alt_km": 497.9580101272086, "timestamp": "2025-12-14T05:42:18.099831+00:00", "meta": {"OBJECT_NAME": "TIANMU-1 17", "OBJECT_ID": "2024-004C", "EPOCH": "2025-12-13T16:11:55.349952", "MEAN_MOTION": 15.24494076, "ECCENTRICITY": 0.00036505, "INCLINATION": 97.4603, "RA_OF_ASC_NODE": 168.9394, "ARG_OF_PERICENTER": 296.0195, "MEAN_ANOMALY": 64.0667, "EPHEMERIS_TYPE": 0, "CLASSIFICATION_TYPE": "U", "NORAD_CAT_ID": 58702, "ELEMENT_SET_NO": 999, "REV_AT_EPOCH": 10748, "BSTAR": 0.00034818166, "MEAN_MOTION_DOT": 8.49e-05, "MEAN_MOTION_DDOT": 0}, "tle": {"line1": "1 58702U 24004C   25347.67494618  .00008490  00000+0  34818-3 0  9995", "line2": "2 58702  97.4603 168.9394 0003650 296.0195  64.0667 15.24494076107480"}}, "geometry": {"type": "Point", "coordinates": [-14.245133280493079, -26.49269945691469]}}, {"type": "Feature", "properties": {"norad_id": 58703, "name": "TIANMU-1 18", "group": "weather", "lat": -61.05358440231741, "lon": -176.5964311893651, "alt_km": 497.45448102616047, "timestamp": "2025-12-14T05:42:18.099842+00:00", "meta": {"OBJECT_NAME": "TIANMU-1 18", "OBJECT_ID": "2024-004D", "EPOCH": "2025-12-13T15:47:54.478752", "MEAN_MOTION": 15.24480649, "ECCENTRICITY": 0.00029966, "INCLINATION": 97.462, "RA_OF_ASC_NODE": 169.1183, "ARG_OF_PERICENTER": 296.1171, "MEAN_ANOMALY": 63.9758, "EPHEMERIS_TYPE": 0, "CLASSIFICATION_TYPE": "U", "NORAD_CAT_ID": 58703, "ELEMENT_SET_NO": 999, "REV_AT_EPOCH": 10748, "BSTAR": 0.00034964346, "MEAN_MOTION_DOT": 8.522e-05, "MEAN_MOTION_DDOT": 0}, "tle": {"line1": "1 58703U 24004D   25347.65826943  .00008522  00000+0  34964-3 0  9992", "line2": "2 58703  97.4620 169.1183 0002996 296.1171  63.9758 15.24480649107486"}}, "geometry": {"type": "Point", "coordinates": [-176.5964311893651, -61.05358440231741]}}, {"type": "Feature", "properties": {"norad_id": 58990, "name": "INSAT-3DS", "group": "weather", "lat": 0.0015672591281728216, "lon": -109.19282812929363, "alt_km": 35780.65140839474, "timestamp": "2025-12-14T05:42:18.099854+00:00", "meta": {"OBJECT_NAME": "INSAT-3DS", "OBJECT_ID": "2024-033A", "EPOCH": "2025-12-13T15:33:08.678304", "MEAN_MOTION": 1.00272556, "ECCENTRICITY": 0.00012735, "INCLINATION": 0.0425, "RA_OF_ASC_NODE": 134.3822, "ARG_OF_PERICENTER": 130.0421, "MEAN_ANOMALY": 133.5232, "EPHEMERIS_TYPE": 0, "CLASSIFICATION_TYPE": "U", "NORAD_CAT_ID": 58990, "ELEMENT_SET_NO": 999, "REV_AT_EPOCH": 4520, "BSTAR": 0, "MEAN_MOTION_DOT": -1.41e-06, "MEAN_MOTION_DDOT": 0}, "tle": {"line1": "1 58990U 24033A   25347.64801711 -.00000141  00000+0  00000+0 0  9997", "line2": "2 58990   0.0425 134.3822 0001273 130.0421 133.5232  1.00272556 45209"}}, "geometry": {"type": "Point", "coordinates": [-109.19282812929363, 0.0015672591281728216]}}, {"type": "Feature", "properties": {"norad_id": 59051, "name": "METEOR-M2 4", "group": "weather", "lat": -74.23511548971022, "lon": -22.132160076021076, "alt_km": 822.8986627509166, "timestamp": "2025-12-14T05:42:18.099875+00:00", "meta": {"OBJECT_NAME": "METEOR-M2 4", "OBJECT_ID": "2024-039A", "EPOCH": "2025-12-13T16:33:33.256800", "MEAN_MOTION": 14.2240144, "ECCENTRICITY": 0.00069907, "INCLINATION": 98.6766, "RA_OF_ASC_NODE": 304.5839, "ARG_OF_PERICENTER": 355.888, "MEAN_ANOMALY": 4.2239, "EPHEMERIS_TYPE": 0, "CLASSIFICATION_TYPE": "U", "NORAD_CAT_ID": 59051, "ELEMENT_SET_NO": 999, "REV_AT_EPOCH": 9289, "BSTAR": 4.7897673e-05, "MEAN_MOTION_DOT": 6.3e-07, "MEAN_MOTION_DDOT": 0}, "tle": {"line1": "1 59051U 24039A   25347.68996825  .00000063  00000+0  47898-4 0  9990", "line2": "2 59051  98.6766 304.5839 0006990 355.8880   4.2239 14.22401440 92897"}}, "geometry": {"type": "Point", "coordinates": [-22.132160076021076, -74.23511548971022]}}, {"type": "Feature", "properties": {"norad_id": 60133, "name": "GOES 19", "group": "weather", "lat": -0.002682340431489413, "lon": 93.53888624362787, "alt_km": 35790.36096015591, "timestamp": "2025-12-14T05:42:18.099896+00:00", "meta": {"OBJECT_NAME": "GOES 19", "OBJECT_ID": "2024-119A", "EPOCH": "2025-12-13T14:48:05.493600", "MEAN_MOTION": 1.0027039, "ECCENTRICITY": 0.00012385, "INCLINATION": 0.0038, "RA_OF_ASC_NODE": 87.7577, "ARG_OF_PERICENTER": 228.6539, "MEAN_ANOMALY": 272.9654, "EPHEMERIS_TYPE": 0, "CLASSIFICATION_TYPE": "U", "NORAD_CAT_ID": 60133, "ELEMENT_SET_NO": 999, "REV_AT_EPOCH": 510, "BSTAR": 0, "MEAN_MOTION_DOT": -2.33e-06, "MEAN_MOTION_DDOT": 0}, "tle": {"line1": "1 60133U 24119A   25347.61673025 -.00000233  00000+0  00000+0 0  9998", "line2": "2 60133   0.0038  87.7577 0001238 228.6539 272.9654  1.00270390  5109"}}, "geometry": {"type": "Point", "coordinates": [93.53888624362787, -0.002682340431489413]}}, {"type": "Feature", "properties": {"norad_id": 65815, "name": "FENGYUN 3H", "group": "weather", "lat": 30.732488557135138, "lon": 112.99313302778774, "alt_km": 823.7136802813066, "timestamp": "2025-12-14T05:42:18.099908+00:00", "meta": {"OBJECT_NAME": "FENGYUN 3H", "OBJECT_ID": "2025-219A", "EPOCH": "2025-12-13T15:28:37.376256", "MEAN_MOTION": 14.19905047, "ECCENTRICITY": 6.347e-05, "INCLINATION": 98.6585, "RA_OF_ASC_NODE": 287.2156, "ARG_OF_PERICENTER": 94.4957, "MEAN_ANOMALY": 265.6292, "EPHEMERIS_TYPE": 0, "CLASSIFICATION_TYPE": "U", "NORAD_CAT_ID": 65815, "ELEMENT_SET_NO": 999, "REV_AT_EPOCH": 1105, "BSTAR": 9.4658984e-05, "MEAN_MOTION_DOT": 1.58e-06, "MEAN_MOTION_DDOT": 0}, "tle": {"line1": "1 65815U 25219A   25347.64487704  .00000158  00000+0  94659-4 0  9995", "line2": "2 65815  98.6585 287.2156 0000634  94.4957 265.6292 14.19905047 11059"}}, "geometry": {"type": "Point", "coordinates": [112.99313302778774, 30.732488557135138]}}]}